COMMENT,ORIGINATOR,NORAD_CAT_ID,OBJECT_NAME,OBJECT_TYPE,CLASSIFICATION_TYPE,INTLDES,EPOCH,EPOCH_MICROSECONDS,MEAN_MOTION,ECCENTRICITY,INCLINATION,RA_OF_ASC_NODE,ARG_OF_PERICENTER,MEAN_ANOMALY,EPHEMERIS_TYPE,ELEMENT_SET_NO,REV_AT_EPOCH,BSTAR,MEAN_MOTION_DOT,MEAN_MOTION_DDOT,FILE,TLE_LINE0,TLE_LINE1,TLE_LINE2,OBJECT_ID,OBJECT_NUMBER,SEMIMAJOR_AXIS,PERIOD,APOGEE,PERIGEE,DECAYED,date
GENERATED VIA SPACETRACK.ORG API,18 SPCS,46301,SPACEBEE-20,PAYLOAD,U,20061AF,2023/3/23 4:29,162560,15.44339398,0.0003626,97.4158,158.2311,239.0344,121.0548,0,999,14105,0.0025144,0.00117455,0,3868494,0 SPACEBEE-20,1 46301U 20061AF  23082.18727040  .00117455  00000-0  25144-2 0  9998,2 46301  97.4158 158.2311 0003626 239.0344 121.0548 15.44339398141054,2020-061AF,46301,6811.457,93.244,435.792,430.852,1,
GENERATED VIA SPACETRACK.ORG API,18 SPCS,46301,SPACEBEE-20,PAYLOAD,U,20061AF,2023/3/23 18:29,810048,15.44518422,0.0003666,97.4157,158.8267,241.2055,118.8826,0,999,14114,0.0032821,0.00155022,0,3868712,0 SPACEBEE-20,1 46301U 20061AF  23082.77039132  .00155022  00000-0  32821-2 0  9993,2 46301  97.4157 158.8267 0003666 241.2055 118.8826 15.44518422141147,2020-061AF,46301,6810.93,93.233,435.292,430.299,1,
GENERATED VIA SPACETRACK.ORG API,18 SPCS,46301,SPACEBEE-20,PAYLOAD,U,20061AF,2023/3/23 18:29,810048,15.44518422,0.0003666,97.4157,158.8267,241.2055,118.8826,0,999,14114,0.0032821,0.00155022,0,3868816,0 SPACEBEE-20,1 46301U 20061AF  23082.77039132  .00155022  00000-0  32821-2 0  9993,2 46301  97.4157 158.8267 0003666 241.2055 118.8826 15.44518422141147,2020-061AF,46301,6810.93,93.233,435.292,430.299,1,
GENERATED VIA SPACETRACK.ORG API,18 SPCS,46301,SPACEBEE-20,PAYLOAD,U,20061AF,2023/3/24 3:49,541024,15.44773961,0.0003631,97.4153,159.2227,238.5708,121.5186,0,999,14120,0.0093402,0.00463288,0,3869037,0 SPACEBEE-20,1 46301U 20061AF  23083.15909191  .00463288  00000-0  93402-2 0  9995,2 46301  97.4153 159.2227 0003631 238.5708 121.5186 15.44773961141208,2020-061AF,46301,6810.179,93.218,434.517,429.572,1,
GENERATED VIA SPACETRACK.ORG API,18 SPCS,46301,SPACEBEE-20,PAYLOAD,U,20061AF,2023/3/24 3:49,541024,15.44773961,0.0003631,97.4153,159.2227,238.5708,121.5186,0,999,14120,0.0093402,0.00463288,0,3869846,0 SPACEBEE-20,1 46301U 20061AF  23083.15909191  .00463288  00000-0  93402-2 0  9995,2 46301  97.4153 159.2227 0003631 238.5708 121.5186 15.44773961141208,2020-061AF,46301,6810.179,93.218,434.517,429.572,1,
GENERATED VIA SPACETRACK.ORG API,18 SPCS,46301,SPACEBEE-20,PAYLOAD,U,20061AF,2023/3/24 16:15,785504,15.4497232,0.0003629,97.4151,159.7518,236.4669,123.6233,0,999,14128,0.004978,0.00241486,0,3869744,0 SPACEBEE-20,1 46301U 20061AF  23083.67727761  .00241486  00000-0  49780-2 0  9997,2 46301  97.4151 159.7518 0003629 236.4669 123.6233 15.44972320141288,2020-061AF,46301,6809.596,93.206,433.933,428.99,1,
GENERATED VIA SPACETRACK.ORG API,18 SPCS,46301,SPACEBEE-20,PAYLOAD,U,20061AF,2023/3/24 16:15,785504,15.4497232,0.0003629,97.4151,159.7518,236.4669,123.6233,0,999,14128,0.004978,0.00241486,0,3870109,0 SPACEBEE-20,1 46301U 20061AF  23083.67727761  .00241486  00000-0  49780-2 0  9997,2 46301  97.4151 159.7518 0003629 236.4669 123.6233 15.44972320141288,2020-061AF,46301,6809.596,93.206,433.933,428.99,1,
GENERATED VIA SPACETRACK.ORG API,18 SPCS,46301,SPACEBEE-20,PAYLOAD,U,20061AF,2023/3/25 4:41,203168,15.45151072,0.0003567,97.4151,160.2809,234.9392,125.1522,0,999,14136,0.0035003,0.00169222,0,3870312,0 SPACEBEE-20,1 46301U 20061AF  23084.19539587  .00169222  00000-0  35003-2 0  9992,2 46301  97.4151 160.2809 0003567 234.9392 125.1522 15.45151072141366,2020-061AF,46301,6809.071,93.195,433.365,428.507,1,
GENERATED VIA SPACETRACK.ORG API,18 SPCS,46301,SPACEBEE-20,PAYLOAD,U,20061AF,2023/3/25 17:07,722816,15.45306776,0.0003697,97.4149,160.81,235.6454,124.4446,0,999,14144,0.0032403,0.00157235,0,3870965,0 SPACEBEE-20,1 46301U 20061AF  23084.71345744  .00157235  00000-0  32403-2 0  9992,2 46301  97.4149 160.8100 0003697 235.6454 124.4446 15.45306776141443,2020-061AF,46301,6808.614,93.185,432.996,427.962,1,
GENERATED VIA SPACETRACK.ORG API,18 SPCS,46301,SPACEBEE-20,PAYLOAD,U,20061AF,2023/3/25 17:07,722816,15.45306776,0.0003697,97.4149,160.81,235.6454,124.4446,0,999,14144,0.0032403,0.00157235,0,3871104,0 SPACEBEE-20,1 46301U 20061AF  23084.71345744  .00157235  00000-0  32403-2 0  9992,2 46301  97.4149 160.8100 0003697 235.6454 124.4446 15.45306776141443,2020-061AF,46301,6808.614,93.185,432.996,427.962,1,
GENERATED VIA SPACETRACK.ORG API,18 SPCS,46301,SPACEBEE-20,PAYLOAD,U,20061AF,2023/3/26 4:00,179456,15.45456721,0.0003816,97.4148,161.2732,235.2234,124.8656,0,999,14151,0.0033199,0.00162025,0,3871617,0 SPACEBEE-20,1 46301U 20061AF  23085.16671504  .00162025  00000-0  33199-2 0  9994,2 46301  97.4148 161.2732 0003816 235.2234 124.8656 15.45456721141514,2020-061AF,46301,6808.173,93.176,432.636,427.44,1,
GENERATED VIA SPACETRACK.ORG API,18 SPCS,46301,SPACEBEE-20,PAYLOAD,U,20061AF,2023/3/26 16:25,273376,15.45593764,0.0003852,97.4146,161.8023,238.2804,121.807,0,999,14159,0.0029998,0.00146791,0,3871857,0 SPACEBEE-20,1 46301U 20061AF  23085.68467909  .00146791  00000-0  29998-2 0  9997,2 46301  97.4146 161.8023 0003852 238.2804 121.8070 15.45593764141591,2020-061AF,46301,6807.771,93.168,432.258,427.014,1,
GENERATED VIA SPACETRACK.ORG API,18 SPCS,46301,SPACEBEE-20,PAYLOAD,U,20061AF,2023/3/26 16:25,273376,15.45593764,0.0003852,97.4146,161.8023,238.2804,121.807,0,999,14159,0.0029998,0.00146791,0,3871964,0 SPACEBEE-20,1 46301U 20061AF  23085.68467909  .00146791  00000-0  29998-2 0  9997,2 46301  97.4146 161.8023 0003852 238.2804 121.8070 15.45593764141591,2020-061AF,46301,6807.771,93.168,432.258,427.014,1,
GENERATED VIA SPACETRACK.ORG API,18 SPCS,46301,SPACEBEE-20,PAYLOAD,U,20061AF,2023/3/27 4:51,640,15.45743694,0.0003908,97.4146,162.3318,236.9701,123.1173,0,999,14167,0.0028488,0.0013999,0,3872569,0 SPACEBEE-20,1 46301U 20061AF  23086.20259260  .00139990  00000-0  28488-2 0  9991,2 46301  97.4146 162.3318 0003908 236.9701 123.1173 15.45743694141674,2020-061AF,46301,6807.331,93.159,431.856,426.535,1,
GENERATED VIA SPACETRACK.ORG API,18 SPCS,46301,SPACEBEE-20,PAYLOAD,U,20061AF,2023/3/27 17:17,534048,15.4588359,0.0003934,97.4142,162.8617,237.3414,122.7456,0,999,14175,0.0027556,0.00135985,0,3872786,0 SPACEBEE-20,1 46301U 20061AF  23086.72045757  .00135985  00000-0  27556-2 0  9997,2 46301  97.4142 162.8617 0003934 237.3414 122.7456 15.45883590141750,2020-061AF,46301,6806.92,93.151,431.463,426.107,1,
GENERATED VIA SPACETRACK.ORG API,18 SPCS,46301,SPACEBEE-20,PAYLOAD,U,20061AF,2023/3/27 17:17,534048,15.4588359,0.0003934,97.4142,162.8617,237.3414,122.7456,0,999,14175,0.0027556,0.00135985,0,3872915,0 SPACEBEE-20,1 46301U 20061AF  23086.72045757  .00135985  00000-0  27556-2 0  9997,2 46301  97.4142 162.8617 0003934 237.3414 122.7456 15.45883590141750,2020-061AF,46301,6806.92,93.151,431.463,426.107,1,
GENERATED VIA SPACETRACK.ORG API,18 SPCS,46301,SPACEBEE-20,PAYLOAD,U,20061AF,2023/3/28 4:09,572256,15.46020784,0.0003988,97.4146,163.3245,235.8398,124.2473,0,999,14182,0.0029337,0.00145641,0,3873106,0 SPACEBEE-20,1 46301U 20061AF  23087.17354829  .00145641  00000-0  29337-2 0  9999,2 46301  97.4146 163.3245 0003988 235.8398 124.2473 15.46020784141823,2020-061AF,46301,6806.517,93.142,431.097,425.668,1,
GENERATED VIA SPACETRACK.ORG API,18 SPCS,46301,SPACEBEE-20,PAYLOAD,U,20061AF,2023/3/28 4:09,572256,15.46020784,0.0003988,97.4146,163.3245,235.8398,124.2473,0,999,14182,0.0029337,0.00145641,0,3873565,0 SPACEBEE-20,1 46301U 20061AF  23087.17354829  .00145641  00000-0  29337-2 0  9999,2 46301  97.4146 163.3245 0003988 235.8398 124.2473 15.46020784141823,2020-061AF,46301,6806.517,93.142,431.097,425.668,1,
GENERATED VIA SPACETRACK.ORG API,18 SPCS,46301,SPACEBEE-20,PAYLOAD,U,20061AF,2023/3/28 18:08,576064,15.46194762,0.0003969,97.4144,163.9206,236.2952,123.7919,0,999,14191,0.0031041,0.00155215,0,3873921,0 SPACEBEE-20,1 46301U 20061AF  23087.75603676  .00155215  00000-0  31041-2 0  9993,2 46301  97.4144 163.9206 0003969 236.2952 123.7919 15.46194762141911,2020-061AF,46301,6806.007,93.132,430.573,425.17,1,
GENERATED VIA SPACETRACK.ORG API,18 SPCS,46301,SPACEBEE-20,PAYLOAD,U,20061AF,2023/3/29 5:01,381216,15.46358486,0.0003987,97.4145,164.3836,234.7558,125.3318,0,999,14198,0.0033026,0.0016631,0,3874117,0 SPACEBEE-20,1 46301U 20061AF  23088.20903219  .00166310  00000-0  33026-2 0  9993,2 46301  97.4145 164.3836 0003987 234.7558 125.3318 15.46358486141984,2020-061AF,46301,6805.526,93.122,430.105,424.678,1,
GENERATED VIA SPACETRACK.ORG API,18 SPCS,46301,SPACEBEE-20,PAYLOAD,U,20061AF,2023/3/29 5:01,381216,15.46358486,0.0003987,97.4145,164.3836,234.7558,125.3318,0,999,14198,0.0033026,0.0016631,0,3874492,0 SPACEBEE-20,1 46301U 20061AF  23088.20903219  .00166310  00000-0  33026-2 0  9993,2 46301  97.4145 164.3836 0003987 234.7558 125.3318 15.46358486141984,2020-061AF,46301,6805.526,93.122,430.105,424.678,1,
GENERATED VIA SPACETRACK.ORG API,18 SPCS,46301,SPACEBEE-20,PAYLOAD,U,20061AF,2023/3/29 17:26,27232,15.46518645,0.0003925,97.4146,164.9141,235.7892,124.2986,0,999,14206,0.0033619,0.00170315,0,3874790,0 SPACEBEE-20,1 46301U 20061AF  23088.72669013  .00170315  00000-0  33619-2 0  9999,2 46301  97.4146 164.9141 0003925 235.7892 124.2986 15.46518645142068,2020-061AF,46301,6805.056,93.112,429.592,424.251,1,
GENERATED VIA SPACETRACK.ORG API,18 SPCS,46301,SPACEBEE-20,PAYLOAD,U,20061AF,2023/3/30 10:31,88512,15.46774274,0.0004016,97.4145,165.6423,234.6328,125.4546,0,999,14217,0.003584,0.00183483,0,3875304,0 SPACEBEE-20,1 46301U 20061AF  23089.43836908  .00183483  00000-0  35840-2 0  9995,2 46301  97.4145 165.6423 0004016 234.6328 125.4546 15.46774274142171,2020-061AF,46301,6804.307,93.097,428.904,423.439,1,
